OBJECT_NAME,OBJECT_ID,EPOCH,MEAN_MOTION,ECCENTRICITY,INCLINATION,RA_OF_ASC_NODE,ARG_OF_PERICENTER,MEAN_ANOMALY,EPHEMERIS_TYPE,CLASSIFICATION_TYPE,NORAD_CAT_ID,ELEMENT_SET_NO,REV_AT_EPOCH,BSTAR,MEAN_MOTION_DOT,MEAN_MOTION_DDOT
PRAETORIAN SDA_614,2025-203N,2026-06-08T00:05:25.111104,13.84777761,.00065594,81.3020,19.1108,209.8945,150.1838,0,U,65577,999,3744,.42988312E-4,.6E-6,0
PRAETORIAN SDA_615,2025-203P,2026-06-08T02:57:00.648288,13.84436068,.00084297,81.3027,18.9586,211.3363,148.7293,0,U,65578,999,3745,.14127158E-3,.17E-5,0
PRAETORIAN SDA_616,2025-203Q,2026-06-08T02:04:35.767776,13.83267093,.00047874,81.3070,19.4893,219.5695,140.5112,0,U,65579,999,3742,.12766345E-3,.152E-5,0
PRAETORIAN SDA_617,2025-203R,2026-06-08T02:34:35.424480,13.83149936,.00067906,81.3043,19.3019,210.2050,149.8716,0,U,65580,999,3743,.38952181E-4,.54E-6,0
PRAETORIAN SDA_618,2025-203S,2026-06-08T02:10:19.241472,13.84668880,.00091101,81.3029,18.9221,213.7845,146.2733,0,U,65581,999,3745,.10043527E-3,.125E-5,0
PRAETORIAN SDA_619,2025-203T,2026-06-08T08:06:16.072992,13.83804624,.0007569,81.3050,18.9758,210.7652,149.3062,0,U,65582,999,3810,.16717E-3,.197E-5,0
PRAETORIAN SDA_620,2025-203U,2026-06-08T08:44:50.767008,13.83617541,.0007104,81.3037,18.9703,206.0785,154.0015,0,U,65583,999,3747,.23443E-3,.271E-5,0
PRAETORIAN SDA_621,2025-203V,2026-06-08T02:56:25.601856,13.83800726,.00068967,81.3027,19.1158,204.3247,155.7585,0,U,65584,999,3744,.66641758E-4,.86E-6,0
PRAETORIAN SDA_601,2025-203W,2026-06-08T02:08:09.771072,13.83166900,.00047607,81.3049,19.4330,223.6759,136.4021,0,U,65585,999,3742,.11167369E-4,.24E-6,0
NUSANTARA LIMA (NUSANTARA 5),2025-205A,2026-06-08T12:12:26.908992,1.00272273,.0000379,0.0291,147.0197,331.7500,74.0948,0,U,65588,999,263,0,-.342E-5,0
COSMOS 2595 (MOZHAETS 6),2025-206A,2026-06-08T08:36:22.441248,2.14901293,.0065724,64.6440,315.1437,305.2275,54.1571,0,U,65589,999,576,0,-.31E-6,0
COSMOS 2596 [GLONASS-K1],2025-206B,2026-06-08T12:49:57.809568,2.13100734,.0011119,64.6398,315.2872,313.0579,41.4208,0,U,65590,999,572,0,-.32E-6,0
STARLINK-35267,2025-207A,2026-06-08T10:43:08.845824,15.05655675,.0002126,97.3859,227.3426,124.9605,235.1822,0,U,65592,999,4190,-.33156E-3,-.4839E-4,0
STARLINK-35269,2025-207B,2026-06-08T03:32:31.033824,15.05650474,.00015139,97.3892,227.1347,144.1615,215.9714,0,U,65593,999,4186,.28345806E-3,.4034E-4,0
STARLINK-35191,2025-207C,2026-06-08T10:19:14.452032,15.05657026,.0001498,97.3880,227.3657,139.2245,220.9095,0,U,65594,999,4174,.42593E-3,.6094E-4,0
STARLINK-35261,2025-207D,2026-06-08T11:07:06.784608,15.05634391,.000114,97.3904,227.4804,149.0837,211.0457,0,U,65595,999,4192,-.24202E-3,-.3546E-4,0
STARLINK-35253,2025-207E,2026-06-08T10:31:12.049824,15.05661170,.0001984,97.3859,227.3563,133.8009,226.3383,0,U,65596,999,4170,.25247E-3,.3588E-4,0
STARLINK-35263,2025-207F,2026-06-08T11:42:58.775328,15.05657172,.0001809,97.3851,227.4429,149.0476,211.0859,0,U,65597,999,4192,.23722E-3,.3367E-4,0
STARLINK-35248,2025-207G,2026-06-08T11:19:03.668736,15.05657541,.0001791,97.3861,227.4659,125.4095,234.7299,0,U,65598,999,4192,.39602E-3,.5662E-4,0
STARLINK-35245,2025-207H,2026-06-08T04:32:20.489856,15.05658157,.0002005,97.3858,227.2367,125.9125,234.2288,0,U,65599,999,4188,.31072E-3,.4429E-4,0
STARLINK-35229,2025-207J,2026-06-08T04:16:22.518624,15.05656679,.0002108,97.3854,227.0932,129.1329,231.0086,0,U,65600,999,4187,.22225E-3,.3151E-4,0
STARLINK-35234,2025-207K,2026-06-08T10:27:12.945600,15.05655182,.0001542,97.3863,227.3594,91.8099,268.3305,0,U,65601,999,4191,.16066E-3,.2261E-4,0
STARLINK-35255,2025-207L,2026-06-08T03:40:31.339200,15.05645067,.00005739,97.3861,227.1291,97.6228,262.5064,0,U,65602,999,4187,.76979288E-3,.11065E-3,0
STARLINK-35250,2025-207M,2026-06-08T04:52:16.410144,15.05654488,.0001664,97.3865,227.2154,145.0503,215.0834,0,U,65603,999,4188,.22734E-3,.3224E-4,0
STARLINK-35251,2025-207N,2026-06-08T10:11:16.044000,15.05662290,.0001047,97.3870,227.3761,83.6899,276.4447,0,U,65604,999,4191,.4108E-3,.5876E-4,0
STARLINK-35171,2025-207P,2026-06-08T05:04:14.092608,15.05649236,.0001166,97.3888,227.2055,128.4815,231.6517,0,U,65605,999,4172,-.10457E-3,-.1566E-4,0
STARLINK-35195,2025-207Q,2026-06-08T10:51:09.285984,15.05660102,.000199,97.3850,227.4944,100.7804,259.3648,0,U,65606,999,4192,.25292E-3,.3594E-4,0
STARLINK-35156,2025-207R,2026-06-08T04:36:20.126304,15.05670902,.0002666,97.3861,227.2318,119.9859,240.1633,0,U,65607,999,4188,.45182E-3,.6471E-4,0
STARLINK-35185,2025-207S,2026-06-08T03:36:29.758752,15.05647892,.00016107,97.3877,227.1321,119.7136,240.4252,0,U,65608,999,4187,.16671649E-4,.183E-5,0
STARLINK-35053,2025-207T,2026-06-08T04:48:17.341344,15.05653712,.0001411,97.3894,227.2194,152.7217,207.4085,0,U,65609,999,4172,-.29022E-3,-.4243E-4,0
