PRAETORIAN SDA_614      
1 65577U 25203N   26159.00376286  .00000060  00000+0  42988-4 0  9997
2 65577  81.3020  19.1108 0006559 209.8945 150.1838 13.84777761 37443
PRAETORIAN SDA_615      
1 65578U 25203P   26159.12292417  .00000170  00000+0  14127-3 0  9999
2 65578  81.3027  18.9586 0008429 211.3363 148.7293 13.84436068 37459
PRAETORIAN SDA_616      
1 65579U 25203Q   26159.08652509  .00000152  00000+0  12766-3 0  9994
2 65579  81.3070  19.4893 0004787 219.5695 140.5112 13.83267093 37422
PRAETORIAN SDA_617      
1 65580U 25203R   26159.10735445  .00000054  00000+0  38952-4 0  9997
2 65580  81.3043  19.3019 0006790 210.2050 149.8716 13.83149936 37430
PRAETORIAN SDA_618      
1 65581U 25203S   26159.09050048  .00000125  00000+0  10044-3 0  9995
2 65581  81.3029  18.9221 0009110 213.7845 146.2733 13.84668880 37451
PRAETORIAN SDA_619      
1 65582U 25203T   26159.33768603  .00000197  00000+0  16717-3 0  9998
2 65582  81.3050  18.9758 0007569 210.7652 149.3062 13.83804624 38109
PRAETORIAN SDA_620      
1 65583U 25203U   26159.36447647  .00000271  00000+0  23443-3 0  9991
2 65583  81.3037  18.9703 0007104 206.0785 154.0015 13.83617541 37475
PRAETORIAN SDA_621      
1 65584U 25203V   26159.12251854  .00000086  00000+0  66642-4 0  9992
2 65584  81.3027  19.1158 0006896 204.3247 155.7585 13.83800726 37449
PRAETORIAN SDA_601      
1 65585U 25203W   26159.08900198  .00000024  00000+0  11167-4 0  9994
2 65585  81.3049  19.4330 0004760 223.6759 136.4021 13.83166900 37427
NUSANTARA LIMA (NUSANT*)
1 65588U 25205A   26159.50864478 -.00000342  00000+0  00000+0 0  9999
2 65588   0.0291 147.0197 0000379 331.7500  74.0948  1.00272273  2630
COSMOS 2595 (MOZHAETS 6)
1 65589U 25206A   26159.35859307 -.00000031  00000+0  00000+0 0  9994
2 65589  64.6440 315.1437 0065724 305.2275  54.1571  2.14901293  5763
COSMOS 2596 [GLONASS-K1]
1 65590U 25206B   26159.53469687 -.00000032  00000+0  00000+0 0  9995
2 65590  64.6398 315.2872 0011119 313.0579  41.4208  2.13100734  5726
STARLINK-35267          
1 65592U 25207A   26159.44663016 -.00004839  00000+0 -33156-3 0  9992
2 65592  97.3859 227.3426 0002126 124.9605 235.1822 15.05655675 41906
STARLINK-35269          
1 65593U 25207B   26159.14758141  .00004034  00000+0  28346-3 0  9994
2 65593  97.3892 227.1347 0001513 144.1615 215.9714 15.05650474 41861
STARLINK-35191          
1 65594U 25207C   26159.43002838  .00006094  00000+0  42593-3 0  9990
2 65594  97.3880 227.3657 0001498 139.2245 220.9095 15.05657026 41746
STARLINK-35261          
1 65595U 25207D   26159.46327297 -.00003546  00000+0 -24202-3 0  9991
2 65595  97.3904 227.4804 0001140 149.0837 211.0457 15.05634391 41922
STARLINK-35253          
1 65596U 25207E   26159.43833391  .00003588  00000+0  25247-3 0  9990
2 65596  97.3859 227.3563 0001984 133.8009 226.3383 15.05661170 41709
STARLINK-35263          
1 65597U 25207F   26159.48818027  .00003367  00000+0  23722-3 0  9996
2 65597  97.3851 227.4429 0001809 149.0476 211.0859 15.05657172 41927
STARLINK-35248          
1 65598U 25207G   26159.47157024  .00005662  00000+0  39602-3 0  9993
2 65598  97.3861 227.4659 0001791 125.4095 234.7299 15.05657541 41929
STARLINK-35245          
1 65599U 25207H   26159.18912604  .00004429  00000+0  31072-3 0  9998
2 65599  97.3858 227.2367 0002005 125.9125 234.2288 15.05658157 41880
STARLINK-35229          
1 65600U 25207J   26159.17803841  .00003151  00000+0  22225-3 0  9993
2 65600  97.3854 227.0932 0002108 129.1329 231.0086 15.05656679 41878
STARLINK-35234          
1 65601U 25207K   26159.43556650  .00002261  00000+0  16066-3 0  9993
2 65601  97.3863 227.3594 0001542  91.8099 268.3305 15.05655182 41916
STARLINK-35255          
1 65602U 25207L   26159.15314050  .00011065  00000+0  76979-3 0  9990
2 65602  97.3861 227.1291 0000573  97.6228 262.5064 15.05645067 41872
STARLINK-35250          
1 65603U 25207M   26159.20296771  .00003224  00000+0  22734-3 0  9994
2 65603  97.3865 227.2154 0001664 145.0503 215.0834 15.05654488 41888
STARLINK-35251          
1 65604U 25207N   26159.42449125  .00005876  00000+0  41080-3 0  9992
2 65604  97.3870 227.3761 0001047  83.6899 276.4447 15.05662290 41915
STARLINK-35171          
1 65605U 25207P   26159.21127422 -.00001566  00000+0 -10457-3 0  9991
2 65605  97.3888 227.2055 0001166 128.4815 231.6517 15.05649236 41723
STARLINK-35195          
1 65606U 25207Q   26159.45219081  .00003594  00000+0  25292-3 0  9995
2 65606  97.3850 227.4944 0001990 100.7804 259.3648 15.05660102 41927
STARLINK-35156          
1 65607U 25207R   26159.19189961  .00006471  00000+0  45182-3 0  9997
2 65607  97.3861 227.2318 0002666 119.9859 240.1633 15.05670902 41882
STARLINK-35185          
1 65608U 25207S   26159.15034443  .00000183  00000+0  16672-4 0  9995
2 65608  97.3877 227.1321 0001610 119.7136 240.4252 15.05647892 41878
STARLINK-35053          
1 65609U 25207T   26159.20020071 -.00004243  00000+0 -29022-3 0  9999
2 65609  97.3894 227.2194 0001411 152.7217 207.4085 15.05653712 41722
